[Satellite]
VERSION=1.1
NAME=STARLINK-1131
NICKNAME=STARLINK-1131
TLE1=1 45047U 20006D   20058.91667824 -.00040837  00000-0 -10515-2 0  9994
TLE2=2 45047  52.9970  92.2805 0001369  62.5112  38.7131 15.38584297  4948
STATUS=0
